ONEWEB-0258             
1 48976U 21060K   24272.28143304  .00000091  00000+0  20510-3 0  9995
2 48976  87.9171 353.6552 0002013  98.8205 261.3154 13.16594593157108
ONEWEB-0259             
1 48977U 21060L   24272.50309547  .00000080  00000+0  17512-3 0  9990
2 48977  87.9170 353.5958 0002182 100.3388 259.7989 13.16594224157169
ONEWEB-0260             
1 48978U 21060M   24272.49436373 -.00000208  00000+0 -57668-3 0  9997
2 48978  87.9169 353.6268 0001628 115.9615 244.1684 13.16594560157143
ONEWEB-0261             
1 48979U 21060N   24272.46350901  .00000121  00000+0  28236-3 0  9998
2 48979  87.9176 353.6291 0002311 114.0664 246.0709 13.16595117157195
ONEWEB-0262             
1 48980U 21060P   24272.29252165  .00000129  00000+0  30489-3 0  9995
2 48980  87.9169 353.6243 0002349 101.9863 258.1531 13.16593294157138
ONEWEB-0266             
1 48984U 21060T   24272.45877044  .00000211  00000+0  51833-3 0  9994
2 48984  87.9174 353.5967 0001921  96.7247 263.4103 13.16596621157111
